{"type": "FeatureCollection", "features": [ {"type": "Feature", "properties": {"norad_id": 30715, "name": "FENGYUN 1C DEB", "group": "fengyun-1c-debris", "lat": 80.95021201572827, "lon": -42.50950732243414, "alt_km": 827.7307896472566, "timestamp": "2025-12-11T10:53:16.165363+00:00", "meta": {"OBJECT_NAME": "FENGYUN 1C DEB", "OBJECT_ID": "1999-025ARZ", "EPOCH": "2025-12-11T03:39:57.034080", "MEAN_MOTION": 14.14674714, "ECCENTRICITY": 0.0067751, "INCLINATION": 98.9756, "RA_OF_ASC_NODE": 54.3053, "ARG_OF_PERICENTER": 172.6804, "MEAN_ANOMALY": 187.5374, "EPHEMERIS_TYPE": 0, "CLASSIFICATION_TYPE": "U", "NORAD_CAT_ID": 30715, "ELEMENT_SET_NO": 999, "REV_AT_EPOCH": 96159, "BSTAR": 0.0026629, "MEAN_MOTION_DOT": 5.196e-05, "MEAN_MOTION_DDOT": 0}, "tle": {"line1": "1 30715U 99025ARZ 25345.15274345  .00005196  00000+0  26629-2 0  9998", "line2": "2 30715  98.9756  54.3053 0067751 172.6804 187.5374 14.14674714961590"}}, "geometry": {"type": "Point", "coordinates": [-42.50950732243414, 80.95021201572827]}}, {"type": "Feature", "properties": {"norad_id": 30716, "name": "FENGYUN 1C DEB", "group": "fengyun-1c-debris", "lat": -33.56712763055005, "lon": 174.33302181704164, "alt_km": 645.2189429752525, "timestamp": "2025-12-11T10:53:16.165373+00:00", "meta": {"OBJECT_NAME": "FENGYUN 1C DEB", "OBJECT_ID": "1999-025ASA", "EPOCH": "2025-12-10T10:57:28.571616", "MEAN_MOTION": 14.79143688, "ECCENTRICITY": 0.00201847, "INCLINATION": 98.8725, "RA_OF_ASC_NODE": 167.2841, "ARG_OF_PERICENTER": 90.4983, "MEAN_ANOMALY": 329.3885, "EPHEMERIS_TYPE": 0, "CLASSIFICATION_TYPE": "U", "NORAD_CAT_ID": 30716, "ELEMENT_SET_NO": 999, "REV_AT_EPOCH": 97790, "BSTAR": 0.0063830124, "MEAN_MOTION_DOT": 0.00047736, "MEAN_MOTION_DDOT": 0}, "tle": {"line1": "1 30716U 99025ASA 25344.45658069  .00047736  00000+0  63830-2 0  9991", "line2": "2 30716  98.8725 167.2841 0020184  90.4983 329.3885 14.79143688977906"}}, "geometry": {"type": "Point", "coordinates": [174.33302181704164, -33.56712763055005]}}, {"type": "Feature", "properties": {"norad_id": 30717, "name": "FENGYUN 1C DEB", "group": "fengyun-1c-debris", "lat": 73.35232021462046, "lon": 24.106731952551296, "alt_km": 851.0128652239619, "timestamp": "2025-12-11T10:53:16.165384+00:00", "meta": {"OBJECT_NAME": "FENGYUN 1C DEB", "OBJECT_ID": "1999-025ASB", "EPOCH": "2025-12-10T04:06:03.362400", "MEAN_MOTION": 14.20517251, "ECCENTRICITY": 0.00481347, "INCLINATION": 99.0168, "RA_OF_ASC_NODE": 54.8737, "ARG_OF_PERICENTER": 265.1306, "MEAN_ANOMALY": 94.4373, "EPHEMERIS_TYPE": 0, "CLASSIFICATION_TYPE": "U", "NORAD_CAT_ID": 30717, "ELEMENT_SET_NO": 999, "REV_AT_EPOCH": 96500, "BSTAR": 0.001839634, "MEAN_MOTION_DOT": 3.953e-05, "MEAN_MOTION_DDOT": 0}, "tle": {"line1": "1 30717U 99025ASB 25344.17087225  .00003953  00000+0  18396-2 0  9991", "line2": "2 30717  99.0168  54.8737 0048134 265.1306  94.4373 14.20517251965008"}}, "geometry": {"type": "Point", "coordinates": [24.106731952551296, 73.35232021462046]}}, {"type": "Feature", "properties": {"norad_id": 30718, "name": "FENGYUN 1C DEB", "group": "fengyun-1c-debris", "lat": 50.90117277396764, "lon": -103.05723853802544, "alt_km": 770.7304711752049, "timestamp": "2025-12-11T10:53:16.165394+00:00", "meta": {"OBJECT_NAME": "FENGYUN 1C DEB", "OBJECT_ID": "1999-025ASC", "EPOCH": "2025-12-10T22:29:09.080160", "MEAN_MOTION": 14.24326482, "ECCENTRICITY": 0.0057625, "INCLINATION": 98.89, "RA_OF_ASC_NODE": 65.3154, "ARG_OF_PERICENTER": 161.4674, "MEAN_ANOMALY": 198.8621, "EPHEMERIS_TYPE": 0, "CLASSIFICATION_TYPE": "U", "NORAD_CAT_ID": 30718, "ELEMENT_SET_NO": 999, "REV_AT_EPOCH": 96748, "BSTAR": 0.002538, "MEAN_MOTION_DOT": 5.925e-05, "MEAN_MOTION_DDOT": 0}, "tle": {"line1": "1 30718U 99025ASC 25344.93691065  .00005925  00000+0  25380-2 0  9991", "line2": "2 30718  98.8900  65.3154 0057625 161.4674 198.8621 14.24326482967488"}}, "geometry": {"type": "Point", "coordinates": [-103.05723853802544, 50.90117277396764]}}, {"type": "Feature", "properties": {"norad_id": 30719, "name": "FENGYUN 1C DEB", "group": "fengyun-1c-debris", "lat": -27.973600743137506, "lon": 131.89253403305347, "alt_km": 707.0938142814675, "timestamp": "2025-12-11T10:53:16.165405+00:00", "meta": {"OBJECT_NAME": "FENGYUN 1C DEB", "OBJECT_ID": "1999-025ASD", "EPOCH": "2025-12-10T20:12:21.485376", "MEAN_MOTION": 14.59138473, "ECCENTRICITY": 0.0011239, "INCLINATION": 98.8881, "RA_OF_ASC_NODE": 126.4706, "ARG_OF_PERICENTER": 200.2748, "MEAN_ANOMALY": 159.8004, "EPHEMERIS_TYPE": 0, "CLASSIFICATION_TYPE": "U", "NORAD_CAT_ID": 30719, "ELEMENT_SET_NO": 999, "REV_AT_EPOCH": 97421, "BSTAR": 0.0055967, "MEAN_MOTION_DOT": 0.00026427, "MEAN_MOTION_DDOT": 0}, "tle": {"line1": "1 30719U 99025ASD 25344.84191534  .00026427  00000+0  55967-2 0  9992", "line2": "2 30719  98.8881 126.4706 0011239 200.2748 159.8004 14.59138473974214"}}, "geometry": {"type": "Point", "coordinates": [131.89253403305347, -27.973600743137506]}}, {"type": "Feature", "properties": {"norad_id": 30720, "name": "FENGYUN 1C DEB", "group": "fengyun-1c-debris", "lat": 53.38750407251619, "lon": -8.736913821183785, "alt_km": 810.2929083215213, "timestamp": "2025-12-11T10:53:16.165416+00:00", "meta": {"OBJECT_NAME": "FENGYUN 1C DEB", "OBJECT_ID": "1999-025ASE", "EPOCH": "2025-12-09T23:43:27.194880", "MEAN_MOTION": 14.29113794, "ECCENTRICITY": 0.00324437, "INCLINATION": 99.0363, "RA_OF_ASC_NODE": 157.3778, "ARG_OF_PERICENTER": 337.0618, "MEAN_ANOMALY": 174.6485, "EPHEMERIS_TYPE": 0, "CLASSIFICATION_TYPE": "U", "NORAD_CAT_ID": 30720, "ELEMENT_SET_NO": 999, "REV_AT_EPOCH": 97449, "BSTAR": 0.00052815625, "MEAN_MOTION_DOT": 1.299e-05, "MEAN_MOTION_DDOT": 0}, "tle": {"line1": "1 30720U 99025ASE 25343.98850920  .00001299  00000+0  52816-3 0  9990", "line2": "2 30720  99.0363 157.3778 0032443 337.0618 174.6485 14.29113794974495"}}, "geometry": {"type": "Point", "coordinates": [-8.736913821183785, 53.38750407251619]}}, {"type": "Feature", "properties": {"norad_id": 30721, "name": "FENGYUN 1C DEB", "group": "fengyun-1c-debris", "lat": 16.090669506596527, "lon": -60.80104653628921, "alt_km": 675.5658654595381, "timestamp": "2025-12-11T10:53:16.165439+00:00", "meta": {"OBJECT_NAME": "FENGYUN 1C DEB", "OBJECT_ID": "1999-025ASF", "EPOCH": "2025-12-10T08:10:06.729024", "MEAN_MOTION": 14.71727073, "ECCENTRICITY": 0.0027827, "INCLINATION": 98.7097, "RA_OF_ASC_NODE": 115.4736, "ARG_OF_PERICENTER": 348.1605, "MEAN_ANOMALY": 40.2537, "EPHEMERIS_TYPE": 0, "CLASSIFICATION_TYPE": "U", "NORAD_CAT_ID": 30721, "ELEMENT_SET_NO": 999, "REV_AT_EPOCH": 97807, "BSTAR": 0.0051855, "MEAN_MOTION_DOT": 0.00032633, "MEAN_MOTION_DDOT": 0}, "tle": {"line1": "1 30721U 99025ASF 25344.34035566  .00032633  00000+0  51855-2 0  9990", "line2": "2 30721  98.7097 115.4736 0027827 348.1605  40.2537 14.71727073978076"}}, "geometry": {"type": "Point", "coordinates": [-60.80104653628921, 16.090669506596527]}}, {"type": "Feature", "properties": {"norad_id": 30723, "name": "FENGYUN 1C DEB", "group": "fengyun-1c-debris", "lat": 1.3823181213926636, "lon": -108.3530018361787, "alt_km": 756.3351402411054, "timestamp": "2025-12-11T10:53:16.165451+00:00", "meta": {"OBJECT_NAME": "FENGYUN 1C DEB", "OBJECT_ID": "1999-025ASH", "EPOCH": "2025-12-10T22:40:55.647264", "MEAN_MOTION": 14.4129871, "ECCENTRICITY": 0.0015338, "INCLINATION": 98.8437, "RA_OF_ASC_NODE": 70.9057, "ARG_OF_PERICENTER": 266.9538, "MEAN_ANOMALY": 154.396, "EPHEMERIS_TYPE": 0, "CLASSIFICATION_TYPE": "U", "NORAD_CAT_ID": 30723, "ELEMENT_SET_NO": 999, "REV_AT_EPOCH": 97345, "BSTAR": 0.0033597, "MEAN_MOTION_DOT": 0.00010849, "MEAN_MOTION_DDOT": 0}, "tle": {"line1": "1 30723U 99025ASH 25344.94508851  .00010849  00000+0  33597-2 0  9998", "line2": "2 30723  98.8437  70.9057 0015338 266.9538 154.3960 14.41298710973456"}}, "geometry": {"type": "Point", "coordinates": [-108.3530018361787, 1.3823181213926636]}}, {"type": "Feature", "properties": {"norad_id": 30724, "name": "FENGYUN 1C DEB", "group": "fengyun-1c-debris", "lat": 69.7686772185622, "lon": 16.471217152633827, "alt_km": 821.9563373785386, "timestamp": "2025-12-11T10:53:16.165462+00:00", "meta": {"OBJECT_NAME": "FENGYUN 1C DEB", "OBJECT_ID": "1999-025ASJ", "EPOCH": "2025-12-10T08:13:39.370656", "MEAN_MOTION": 14.3703728, "ECCENTRICITY": 0.00929847, "INCLINATION": 99.3156, "RA_OF_ASC_NODE": 168.8223, "ARG_OF_PERICENTER": 266.9563, "MEAN_ANOMALY": 217.9489, "EPHEMERIS_TYPE": 0, "CLASSIFICATION_TYPE": "U", "NORAD_CAT_ID": 30724, "ELEMENT_SET_NO": 999, "REV_AT_EPOCH": 98418, "BSTAR": 0.00067274525, "MEAN_MOTION_DOT": 2.044e-05, "MEAN_MOTION_DDOT": 0}, "tle": {"line1": "1 30724U 99025ASJ 25344.34281679  .00002044  00000+0  67275-3 0  9998", "line2": "2 30724  99.3156 168.8223 0092984 266.9563 217.9489 14.37037280984185"}}, "geometry": {"type": "Point", "coordinates": [16.471217152633827, 69.7686772185622]}}, {"type": "Feature", "properties": {"norad_id": 30725, "name": "FENGYUN 1C DEB", "group": "fengyun-1c-debris", "lat": 2.4875743220866307, "lon": 53.86078888871127, "alt_km": 787.3597890995115, "timestamp": "2025-12-11T10:53:16.165474+00:00", "meta": {"OBJECT_NAME": "FENGYUN 1C DEB", "OBJECT_ID": "1999-025ASK", "EPOCH": "2025-12-11T04:20:51.174240", "MEAN_MOTION": 14.16059041, "ECCENTRICITY": 0.0087395, "INCLINATION": 99.0069, "RA_OF_ASC_NODE": 53.9801, "ARG_OF_PERICENTER": 34.9475, "MEAN_ANOMALY": 19.7691, "EPHEMERIS_TYPE": 0, "CLASSIFICATION_TYPE": "U", "NORAD_CAT_ID": 30725, "ELEMENT_SET_NO": 999, "REV_AT_EPOCH": 96326, "BSTAR": 0.0016469, "MEAN_MOTION_DOT": 3.33e-05, "MEAN_MOTION_DDOT": 0}, "tle": {"line1": "1 30725U 99025ASK 25345.18114785  .00003330  00000+0  16469-2 0  9992", "line2": "2 30725  99.0069  53.9801 0087395  34.9475  19.7691 14.16059041963262"}}, "geometry": {"type": "Point", "coordinates": [53.86078888871127, 2.4875743220866307]}}]}